{
  "type": "FeatureCollection",
  "features": [
    {
      "type": "Feature",
      "properties": {
        "name": "Telangana"
      },
      "geometry": {
        "type": "Polygon",
        "coordinates": [
          [
            [
              78.95012298742549,
              19.533309826224464
            ],
            [
              78.94213221944858,
              19.513787572356613
            ],
            [
              78.94898144914308,
              19.501237552012995
            ],
            [
              78.97447580411699,
              19.490779201726646
            ],
            [
              78.9269117090164,
              19.46219304427729
            ],
            [
              78.9037004306073,
              19.474045841268484
            ],
            [
              78.88467479256707,
              19.44545968381913
            ],
            [
              78.85309223342027,
              19.44720274220019
            ],
            [
              78.82074864875186,
              19.38793875724421
            ],
            [
              78.80971377868852,
              19.386544310539364
            ],
            [
              78.85423377170268,
              19.36841650337636
            ],
            [
              78.8546142844635,
              19.303923343277205
            ],
            [
              78.8546142844635,
              19.278823302589966
            ],
            [
              78.8557558227459,
              19.278474690913754
            ],
            [
              78.85385325894188,
              19.278126079237545
            ],
            [
              78.84966761857302,
              19.267667728951192
            ],
            [
              78.84890659305141,
              19.26278716548423
            ],
            [
              78.84700402924739,
              19.261741330455596
            ],
            [
              78.81960711046945,
              19.246751028378494
            ],
            [
              78.81199685525335,
              19.221650987691255
            ],
            [
              78.80096198519001,
              19.214678754167025
            ],
            [
              78.8002009596684,
              19.214330142490812
            ],
            [
              78.7998204469076,
              19.2139815308146
            ],
            [
              78.75872506874069,
              19.278126079237545
            ],
            [
              78.7199127671386,
              19.29660249807676
            ],
            [
              78.72257635646423,
              19.326583102230963
            ],
            [
              78.67501226136363,
              19.316124751944614
            ],
            [
              78.61527175791728,
              19.261044107103174
            ],
            [
              78.58787483913935,
              19.28788720617147
            ],
            [
              78.57037125214232,
              19.286492759466622
            ],
            [
              78.52166561875931,
              19.25058575681682
            ],
            [
              78.50948921041356,
              19.214678754167025
            ],
            [
              78.4565979366617,
              19.226880162834433
            ],
            [
              78.4486071686848,
              19.18016619822207
            ],
            [
              78.4486071686848,
              19.178771751517225
            ],
            [
              78.4333866582526,
              19.178074528164803
            ],
            [
              78.39685743321535,
              19.176331469783744
            ],
            [
              78.38848615247764,
              19.17598285810753
            ],
            [
              78.3694605144374,
              19.18225786827934
            ],
            [
              78.36299179750372,
              19.199688452089923
            ],
            [
              78.31809129172876,
              19.215375977519447
            ],
            [
              78.31733026620715,
              19.21572458919566
            ],
            [
              78.29944616644933,
              19.259301048722115
            ],
            [
              78.27547386251862,
              19.265924670570136
            ],
            [
              78.26672206902012,
              19.284401089409354
            ],
            [
              78.23019284398286,
              19.308803906744167
            ],
            [
              78.2016543869225,
              19.30915251842038
            ],
            [
              78.19746874655365,
              19.30915251842038
            ],
            [
              78.19556618274963,
              19.314730305239767
            ],
            [
              78.19214156790238,
              19.325885878878537
            ],
            [
              78.17616003194858,
              19.33494978246004
            ],
            [
              78.17197439157972,
              19.359701211471066
            ],
            [
              78.18757541477272,
              19.394562379092232
            ],
            [
              78.17616003194858,
              19.412341574579024
            ],
            [
              78.19518566998882,
              19.40676378775964
            ],
            [
              78.21154771870343,
              19.42837771168476
            ],
            [
              78.24465232889344,
              19.428726323360973
            ],
            [
              78.27052719662817,
              19.456266645781692
            ],
            [
              78.28688924534278,
              19.448597188905037
            ],
            [
              78.30439283233979,
              19.456615257457905
            ],
            [
              78.30933949823026,
              19.48101807479272
            ],
            [
              78.29335796227645,
              19.542373729805966
            ],
            [
              78.27433232423621,
              19.553877915120953
            ],
            [
              78.27509334975782,
              19.562593207026243
            ],
            [
              78.29373847503726,
              19.559107090264128
            ],
            [
              78.30363180681817,
              19.569216828874264
            ],
            [
              78.30553437062221,
              19.607215501581333
            ],
            [
              78.29031386019001,
              19.645911397640827
            ],
            [
              78.26253642865126,
              19.665085039832466
            ],
            [
              78.27623488804024,
              19.692276750576973
            ],
            [
              78.31200308755588,
              19.690882303872126
            ],
            [
              78.31885231725037,
              19.705523994273015
            ],
            [
              78.34320513394188,
              19.71319345114967
            ],
            [
              78.34130257013786,
              19.73585321010343
            ],
            [
              78.36451384854695,
              19.78082411633473
            ],
            [
              78.35880615713488,
              19.802786651936064
            ],
            [
              78.33407282768256,
              19.81463944892726
            ],
            [
              78.3363559042474,
              19.837996431233442
            ],
            [
              78.29982667921013,
              19.841133936319345
            ],
            [
              78.28536719429955,
              19.856472850072656
            ],
            [
              78.30705642166542,
              19.91434238832379
            ],
            [
              78.33064821283531,
              19.914691
            ],
            [
              78.32456000866244,
              19.894820134455937
            ],
            [
              78.33559487872579,
              19.883664560817166
            ],
            [
              78.38087589726155,
              19.88052705573126
            ],
            [
              78.385822563152,
              19.846014499786307
            ],
            [
              78.40028204806259,
              19.83416170279511
            ],
            [
              78.43186460720939,
              19.814988060603472
            ],
            [
              78.4725794726155,
              19.817428342336953
            ],
            [
              78.49008305961252,
              19.792676913325927
            ],
            [
              78.50720613384873,
              19.79755747679289
            ],
            [
              78.51519690182563,
              19.8188227890418
            ],
            [
              78.5521066396237,
              19.824051964184974
            ],
            [
              78.69289636112146,
              19.790933854944868
            ],
            [
              78.71915174161698,
              19.766531037610054
            ],
            [
              78.74007994346125,
              19.783264398068212
            ],
            [
              78.75644199217585,
              19.77245743610565
            ],
            [
              78.78231685991058,
              19.77838383460125
            ],
            [
              78.80210352347243,
              19.756421298999918
            ],
            [
              78.84091582507452,
              19.7619990858193
            ],
            [
              78.85994146311475,
              19.68948785716728
            ],
            [
              78.85195069513786,
              19.658461417984444
            ],
            [
              78.88657735637109,
              19.65497530122233
            ],
            [
              78.9037004306073,
              19.669965603299428
            ],
            [
              78.95545016607676,
              19.656021136250963
            ],
            [
              78.95545016607676,
              19.6002432680571
            ],
            [
              78.97295375307377,
              19.582464072570307
            ],
            [
              78.93756606631892,
              19.56189598367382
            ],
            [
              78.93604401527571,
              19.550043186682622
            ],
            [
              78.9352829897541,
              19.550043186682622
            ],
            [
              78.93604401527571,
              19.5493459633302
            ],
            [
              78.95012298742549,
              19.533309826224464
            ]
          ]
        ]
      }
    }
  ]
}